*******************************************************************************
 Revised: Sep 13, 2016            Sinope / (Jupiter)                        509

 SATELLITE PHYSICAL PROPERTIES:
  Radius (km)             = 14              Density (g cm^-3)   =              
  Mass (10^20 kg )        =                 Geometric Albedo    =  
                                            V(1,0)              = +11.6 

 SATELLITE ORBITAL DATA:
  Semi-major axis, a (km) = 23700 (10^3)    Orbital period      = 758 d (retro)
  Eccentricity, e         =   0.275         Rotational period   = 
  Inclination, i  (deg)   =  153            Local invar ref. pln= Sun
*******************************************************************************
 
 
*******************************************************************************
Ephemeris / WWW_USER Sat Aug  5 12:07:15 2017 Pasadena, USA      / Horizons    
*******************************************************************************
Target body name: Sinope (509)                    {source: jup340_merged}
Center body name: Solar System Barycenter (0)     {source: DE431mx}
Center-site name: BODY CENTER
*******************************************************************************
Start time      : A.D. 2017-Jul-10 00:00:00.0000 TDB
Stop  time      : A.D. 2020-Aug-13 00:00:00.0000 TDB
Step-size       : 1440 minutes
*******************************************************************************
Center geodetic : 0.00000000,0.00000000,0.0000000 {E-lon(deg),Lat(deg),Alt(km)}
Center cylindric: 0.00000000,0.00000000,0.0000000 {E-lon(deg),Dxy(km),Dz(km)}
Center radii    : (undefined)                                                  
Output units    : KM-S                                                         
Output type     : GEOMETRIC cartesian states
Output format   : 3 (position, velocity, LT, range, range-rate)
Reference frame : ICRF/J2000.0                                                 
Coordinate systm: Ecliptic and Mean Equinox of Reference Epoch                 
*******************************************************************************
            JDTDB,            Calendar Date (TDB),                      X,                      Y,                      Z,                     VX,                     VY,                     VZ,                     LT,                     RG,                     RR,
**************************************************************************************************************************************************************************************************************************************************************************
$$SOE
2458943.500000000, A.D. 2020-Apr-04 00:00:00.0000,  1.592401463775243E+08, -7.661269228955531E+08,  9.677059240559936E+05,  1.107133778358872E+01,  5.021659754998264E+00, -1.051127573525701E+00,  2.610144528284028E+03,  7.825016438695190E+08, -2.664843563445757E+00,
2458944.500000000, A.D. 2020-Apr-05 00:00:00.0000,  1.601971964840890E+08, -7.656919120250171E+08,  8.768324678878188E+05,  1.108259445444142E+01,  5.048015863793801E+00, -1.052415614537149E+00,  2.609375390585065E+03,  7.822710621882068E+08, -2.672663288402189E+00,
2458945.500000000, A.D. 2020-Apr-06 00:00:00.0000,  1.611552177525509E+08, -7.652546292725843E+08,  7.858500595368147E+05,  1.109381825479225E+01,  5.074249808942172E+00, -1.053649708350425E+00,  2.608604026909748E+03,  7.820398131759717E+08, -2.680291252684134E+00,
2458946.500000000, A.D. 2020-Apr-07 00:00:00.0000,  1.621142073100321E+08, -7.648150851428772E+08,  6.947633358985186E+05,  1.110500842761097E+01,  5.100362751993024E+00, -1.054830412494321E+00,  2.607830492339141E+03,  7.818079133457011E+08, -2.687728731876837E+00,
2458947.500000000, A.D. 2020-Apr-08 00:00:00.0000,  1.630741622189886E+08, -7.643732900408466E+08,  6.035768860675097E+05,  1.111616423102041E+01,  5.126355840712435E+00, -1.055958275753836E+00,  2.607054841588665E+03,  7.815753791006665E+08, -2.694976990261277E+00,
2458948.500000000, A.D. 2020-Apr-09 00:00:00.0000,  1.640350794784959E+08, -7.639292542723992E+08,  5.122952520727515E+05,  1.112728494424565E+01,  5.152230220784841E+00, -1.057033839465977E+00,  2.606277129009521E+03,  7.813422267349473E+08, -2.702037290924630E+00,
2458949.500000000, A.D. 2020-Apr-10 00:00:00.0000,  1.649969560274763E+08, -7.634829880449088E+08,  4.209229293482304E+05,  1.113836989864918E+01,  5.177987022437964E+00, -1.058057641075406E+00,  2.605497408591115E+03,  7.811084724341605E+08, -2.708910875964885E+00,
2458950.500000000, A.D. 2020-Apr-11 00:00:00.0000,  1.659597887480962E+08, -7.630345014695898E+08,  3.294643672463894E+05,  1.114941842817992E+01,  5.203627343432107E+00, -1.059030207327995E+00,  2.604715733969762E+03,  7.808741322780693E+08, -2.715598960046485E+00,
2458951.500000000, A.D. 2020-Apr-12 00:00:00.0000,  1.669235744623249E+08, -7.625838045628159E+08,  2.379239703500867E+05,  1.116042985726680E+01,  5.229152279737279E+00, -1.059952054287094E+00,  2.603932158429144E+03,  7.806392222407186E+08, -2.722102763054896E+00,
2458952.500000000, A.D. 2020-Apr-13 00:00:00.0000,  1.678883099411409E+08, -7.621309072468234E+08,  1.463060982102752E+05,  1.117140357399440E+01,  5.254562901677109E+00, -1.060823695874073E+00,  2.603146734907732E+03,  7.804037581926636E+08, -2.728423470998328E+00,
2458953.500000000, A.D. 2020-Apr-14 00:00:00.0000,  1.688539918973148E+08, -7.616758193534181E+08,  5.461506698966026E+04,  1.118233897858868E+01,  5.279860293199584E+00, -1.061645637089871E+00,  2.602359516004376E+03,  7.801677559026423E+08, -2.734562285248495E+00,
2458954.500000000, A.D. 2020-Apr-15 00:00:00.0000,  1.698206169953464E+08, -7.612185506197275E+08, -3.714485073864460E+04,  1.119323545418547E+01,  5.305045482707566E+00, -1.062418372225092E+00,  2.601570553970238E+03,  7.799312310351591E+08, -2.740520361142211E+00,
2458955.500000000, A.D. 2020-Apr-16 00:00:00.0000,  1.707881818457191E+08, -7.607591106953058E+08, -1.289694246715307E+05,  1.120409241434336E+01,  5.330119514873843E+00, -1.063142389829173E+00,  2.600779900726495E+03,  7.796941991557916E+08, -2.746298867958865E+00,
2458956.500000000, A.D. 2020-Apr-17 00:00:00.0000,  1.717566830109735E+08, -7.602975091389438E+08, -2.208544665833116E+05,  1.121490931952162E+01,  5.355083428100370E+00, -1.063818173839499E+00,  2.599987607857046E+03,  7.794566757290040E+08, -2.751898962985453E+00,
2458957.500000000, A.D. 2020-Apr-18 00:00:00.0000,  1.727261170069148E+08, -7.598337554214643E+08, -3.127958296647668E+05,  1.122568562754538E+01,  5.379938225657236E+00, -1.064446199073016E+00,  2.599193726617261E+03,  7.792186761207684E+08, -2.757321774055390E+00,
2458958.500000000, A.D. 2020-Apr-19 00:00:00.0000,  1.736964803030654E+08, -7.593678589273081E+08, -4.047894078044295E+05,  1.123642081337337E+01,  5.404684906250127E+00, -1.065026933182700E+00,  2.598398307938239E+03,  7.789802155998456E+08, -2.762568425014675E+00,
2458959.500000000, A.D. 2020-Apr-20 00:00:00.0000,  1.746677693247693E+08, -7.588998289549762E+08, -4.968311350299716E+05,  1.124711437811951E+01,  5.429324456948558E+00, -1.065560837571728E+00,  2.597601402428607E+03,  7.787413093383192E+08, -2.767640026677892E+00,
2458960.500000000, A.D. 2020-Apr-21 00:00:00.0000,  1.756399804548664E+08, -7.584296747187952E+08, -5.889169849247336E+05,  1.125776583389687E+01,  5.453857838786158E+00, -1.066048366271028E+00,  2.596803060380320E+03,  7.785019724133385E+08, -2.772537666052802E+00,
2458961.500000000, A.D. 2020-Apr-22 00:00:00.0000,  1.766131100341431E+08, -7.579574053508742E+08, -6.810429699583650E+05,  1.126837469555253E+01,  5.478285997066008E+00, -1.066489965463217E+00,  2.596003331774208E+03,  7.782622198087792E+08, -2.777262418227324E+00,
2458962.500000000, A.D. 2020-Apr-23 00:00:00.0000,  1.775871543619350E+08, -7.574830299017609E+08, -7.732051408448815E+05,  1.127894049133799E+01,  5.502609875258052E+00, -1.066886074468207E+00,  2.595202266281401E+03,  7.780220664156715E+08, -2.781815357470472E+00,
2458963.500000000, A.D. 2020-Apr-24 00:00:00.0000,  1.785621096978417E+08, -7.570065573407568E+08, -8.653995859947801E+05,  1.128946277370401E+01,  5.526830407919871E+00, -1.067237126607344E+00,  2.594399913264510E+03,  7.777815270325543E+08, -2.786197547758894E+00,
2458964.500000000, A.D. 2020-Apr-25 00:00:00.0000,  1.795379722636676E+08, -7.565279965573132E+08, -9.576224309864044E+05,  1.129994111301959E+01,  5.550948508127266E+00, -1.067543548769547E+00,  2.593596321782542E+03,  7.775406163669471E+08, -2.790410031832534E+00,
2458965.500000000, A.D. 2020-Apr-26 00:00:00.0000,  1.805147382444248E+08, -7.560473563627023E+08, -1.049869837974191E+06,  1.131037508661215E+01,  5.574965075430121E+00, -1.067805760715215E+00,  2.592791540596002E+03,  7.772993490368822E+08, -2.794453841390294E+00,
2458966.500000000, A.D. 2020-Apr-27 00:00:00.0000,  1.814924037891659E+08, -7.555646454906067E+08, -1.142138005092025E+06,  1.132076428830235E+01,  5.598881005368077E+00, -1.068024175760801E+00,  2.591985618168392E+03,  7.770577395713515E+08, -2.798330004085010E+00,
2458967.500000000, A.D. 2020-Apr-28 00:00:00.0000,  1.824709650131979E+08, -7.550798725983063E+08, -1.234423165947139E+06,  1.133110834234930E+01,  5.622697165461950E+00, -1.068199201721601E+00,  2.591178602670726E+03,  7.768158024116623E+08, -2.802039516781544E+00,
2458968.500000000, A.D. 2020-Apr-29 00:00:00.0000,  1.834504179993328E+08, -7.545930462694438E+08, -1.326721589078903E+06,  1.134140685906146E+01,  5.646414404545248E+00, -1.068331238756917E+00,  2.590370541990467E+03,  7.765735519141145E+08, -2.805583364951313E+00,
2458969.500000000, A.D. 2020-Apr-30 00:00:00.0000,  1.844307587951541E+08, -7.541041750126581E+08, -1.419029577231228E+06,  1.135165945015349E+01,  5.670033581849231E+00, -1.068420680254295E+00,  2.589561483723925E+03,  7.763310023477222E+08, -2.808962547441261E+00,
